 {
    "type": "FeatureCollection",
    "name": "fuel_osm",
    "crs": { "type": "name", "properties": { "name": "urn:ogc:def:crs:OGC:1.3:CRS84" } },
    "features": [
    { "type": "Feature", "properties": { "id": "node/1138413644", "name:en": "Denko Insein Branch" }, "geometry": { "type": "Point", "coordinates": [ 96.1096534, 16.8860441 ] } },
    { "type": "Feature", "properties": { "id": "node/2571887266", "name:en": "MAX" }, "geometry": { "type": "Point", "coordinates": [ 96.1119957, 16.8421195 ] } },
    { "type": "Feature", "properties": { "id": "node/2572431175", "name:en": "MMTM Fuel Station Ywarma" }, "geometry": { "type": "Point", "coordinates": [ 96.1211177, 16.8330182 ] } },
    { "type": "Feature", "properties": { "id": "node/2572454360", "name:en": "SPC" }, "geometry": { "type": "Point", "coordinates": [ 96.1381482, 16.8016579 ] } },
    { "type": "Feature", "properties": { "id": "node/2578264080", "name:en": "New Day" }, "geometry": { "type": "Point", "coordinates": [ 96.155203, 16.8363095 ] } },
    { "type": "Feature", "properties": { "id": "node/2910464522", "name:en": "New Day" }, "geometry": { "type": "Point", "coordinates": [ 96.1300795, 16.8042712 ] } },
    { "type": "Feature", "properties": { "id": "node/2910580580", "name:en": "CNG" }, "geometry": { "type": "Point", "coordinates": [ 96.1257208, 16.8166628 ] } },
    { "type": "Feature", "properties": { "id": "node/2956795311", "name:en": "Myawady" }, "geometry": { "type": "Point", "coordinates": [ 96.1542718, 16.8225698 ] } },
    { "type": "Feature", "properties": { "id": "node/2965457161", "name:en": "New Day" }, "geometry": { "type": "Point", "coordinates": [ 96.180038, 16.7891586 ] } },
    { "type": "Feature", "properties": { "id": "node/2965637182", "name:en": "MMTM" }, "geometry": { "type": "Point", "coordinates": [ 96.172633, 16.814791 ] } },
    { "type": "Feature", "properties": { "id": "node/2965642304", "name:en": "GL" }, "geometry": { "type": "Point", "coordinates": [ 96.1726289, 16.8150478 ] } },
    { "type": "Feature", "properties": { "id": "node/2965713607", "name:en": "CNG" }, "geometry": { "type": "Point", "coordinates": [ 96.1719084, 16.8246756 ] } },
    { "type": "Feature", "properties": { "id": "node/2965774464", "name:en": "CNG" }, "geometry": { "type": "Point", "coordinates": [ 96.1857622, 16.8025986 ] } },
    { "type": "Feature", "properties": { "id": "node/2999635822", "name:en": "မြတ်မေတ္တာမွန်" }, "geometry": { "type": "Point", "coordinates": [ 96.1826892, 16.865831 ] } },
    { "type": "Feature", "properties": { "id": "node/3372811490", "name:en": "Max" }, "geometry": { "type": "Point", "coordinates": [ 96.1303348, 16.8147723 ] } },
    { "type": "Feature", "properties": { "id": "node/3683899463", "name:en": "Petro K" }, "geometry": { "type": "Point", "coordinates": [ 96.1275387, 16.984956 ] } },
    { "type": "Feature", "properties": { "id": "node/3683899465", "name:en": "YATANA PHYO" }, "geometry": { "type": "Point", "coordinates": [ 96.1301426, 16.9996044 ] } },
    { "type": "Feature", "properties": { "id": "node/3777657274", "name:en": "Denko Bahan Branch" }, "geometry": { "type": "Point", "coordinates": [ 96.1441041, 16.8028386 ] } },
    { "type": "Feature", "properties": { "id": "node/3790269793", "name:en": "Max" }, "geometry": { "type": "Point", "coordinates": [ 96.1671969, 16.7913529 ] } },
    { "type": "Feature", "properties": { "id": "node/3790271207", "name:en": "ST Oil" }, "geometry": { "type": "Point", "coordinates": [ 96.1711895, 16.7939423 ] } },
    { "type": "Feature", "properties": { "id": "node/3838315913", "name:en": "Myawaddy" }, "geometry": { "type": "Point", "coordinates": [ 96.1487811, 16.8257126 ] } },
    { "type": "Feature", "properties": { "id": "node/3864601759", "name:en": null }, "geometry": { "type": "Point", "coordinates": [ 95.9927185, 16.8884197 ] } },
    { "type": "Feature", "properties": { "id": "node/3864605168", "name:en": "YKK" }, "geometry": { "type": "Point", "coordinates": [ 95.9910951, 16.8922817 ] } },
    { "type": "Feature", "properties": { "id": "node/3864605265", "name:en": "ZTH" }, "geometry": { "type": "Point", "coordinates": [ 95.9971878, 16.8865115 ] } },
    { "type": "Feature", "properties": { "id": "node/3935839837", "name:en": "Terminal gas station" }, "geometry": { "type": "Point", "coordinates": [ 96.0469143, 16.8667009 ] } },
    { "type": "Feature", "properties": { "id": "node/3935839839", "name:en": null }, "geometry": { "type": "Point", "coordinates": [ 96.080871, 16.9002251 ] } },
    { "type": "Feature", "properties": { "id": "node/3935839841", "name:en": null }, "geometry": { "type": "Point", "coordinates": [ 95.9968118, 16.8886231 ] } },
    { "type": "Feature", "properties": { "id": "node/3935839842", "name:en": null }, "geometry": { "type": "Point", "coordinates": [ 95.9902856, 16.8923552 ] } },
    { "type": "Feature", "properties": { "id": "node/3935839843", "name:en": null }, "geometry": { "type": "Point", "coordinates": [ 95.9776484, 16.8964664 ] } },
    { "type": "Feature", "properties": { "id": "node/4258450162", "name:en": "360°" }, "geometry": { "type": "Point", "coordinates": [ 96.1780204, 16.78795 ] } },
    { "type": "Feature", "properties": { "id": "node/4278528672", "name:en": "Max Energy (Tamwe)" }, "geometry": { "type": "Point", "coordinates": [ 96.1751236, 16.8132301 ] } },
    { "type": "Feature", "properties": { "id": "node/4300570190", "name:en": "360" }, "geometry": { "type": "Point", "coordinates": [ 96.1785034, 16.7881336 ] } },
    { "type": "Feature", "properties": { "id": "node/4386506608", "name:en": "Terminal " }, "geometry": { "type": "Point", "coordinates": [ 96.1348984, 16.9154721 ] } },
    { "type": "Feature", "properties": { "id": "node/4386540790", "name:en": "DENKO Aung San Branch" }, "geometry": { "type": "Point", "coordinates": [ 96.0973581, 16.911951 ] } },
    { "type": "Feature", "properties": { "id": "node/4386643792", "name:en": "Moon Sun" }, "geometry": { "type": "Point", "coordinates": [ 96.1657924, 16.9032323 ] } },
    { "type": "Feature", "properties": { "id": "node/4388533190", "name:en": "PT Power" }, "geometry": { "type": "Point", "coordinates": [ 96.2189439, 16.8479181 ] } },
    { "type": "Feature", "properties": { "id": "node/4388625389", "name:en": "PT Power (South Dagon)" }, "geometry": { "type": "Point", "coordinates": [ 96.2391706, 16.8258142 ] } },
    { "type": "Feature", "properties": { "id": "node/4388875606", "name:en": "CNG Gas Station" }, "geometry": { "type": "Point", "coordinates": [ 96.2190848, 16.8072357 ] } },
    { "type": "Feature", "properties": { "id": "node/4388950790", "name:en": "Terminal" }, "geometry": { "type": "Point", "coordinates": [ 96.1318665, 16.8667337 ] } },
    { "type": "Feature", "properties": { "id": "node/4388950791", "name:en": "Petro Green" }, "geometry": { "type": "Point", "coordinates": [ 96.1236833, 16.8116667 ] } },
    { "type": "Feature", "properties": { "id": "node/4391547394", "name:en": "Star High" }, "geometry": { "type": "Point", "coordinates": [ 96.1334612, 17.027179 ] } },
    { "type": "Feature", "properties": { "id": "node/4391606789", "name:en": "Moon Sun" }, "geometry": { "type": "Point", "coordinates": [ 96.1175356, 16.8900729 ] } },
    { "type": "Feature", "properties": { "id": "node/4416006591", "name:en": "Max" }, "geometry": { "type": "Point", "coordinates": [ 96.1605083, 16.8221889 ] } },
    { "type": "Feature", "properties": { "id": "node/4421615992", "name:en": "Shwe Zin Yaw" }, "geometry": { "type": "Point", "coordinates": [ 96.0610297, 17.1070189 ] } },
    { "type": "Feature", "properties": { "id": "node/4463328489", "name:en": "GL" }, "geometry": { "type": "Point", "coordinates": [ 96.1219658, 16.7979732 ] } },
    { "type": "Feature", "properties": { "id": "node/4469793053", "name:en": "Max" }, "geometry": { "type": "Point", "coordinates": [ 96.1245787, 16.7877729 ] } },
    { "type": "Feature", "properties": { "id": "node/4506193690", "name:en": "Yatanar" }, "geometry": { "type": "Point", "coordinates": [ 96.1514042, 16.944991 ] } },
    { "type": "Feature", "properties": { "id": "node/4511695589", "name:en": "MMHK Fuel Station" }, "geometry": { "type": "Point", "coordinates": [ 96.2664237, 16.7433231 ] } },
    { "type": "Feature", "properties": { "id": "node/4517355501", "name:en": "New Day" }, "geometry": { "type": "Point", "coordinates": [ 96.1739456, 16.7740253 ] } },
    { "type": "Feature", "properties": { "id": "node/4517851990", "name:en": null }, "geometry": { "type": "Point", "coordinates": [ 96.2469021, 16.8242943 ] } },
    { "type": "Feature", "properties": { "id": "node/4517890589", "name:en": "Standard" }, "geometry": { "type": "Point", "coordinates": [ 96.2477542, 16.8285014 ] } },
    { "type": "Feature", "properties": { "id": "node/4517890590", "name:en": "SBP" }, "geometry": { "type": "Point", "coordinates": [ 96.2050856, 16.7878791 ] } },
    { "type": "Feature", "properties": { "id": "node/4519363489", "name:en": "Under construction" }, "geometry": { "type": "Point", "coordinates": [ 96.2485004, 16.8293456 ] } },
    { "type": "Feature", "properties": { "id": "node/4519380490", "name:en": "Hlaing Myint Mo" }, "geometry": { "type": "Point", "coordinates": [ 96.2542206, 16.8352267 ] } },
    { "type": "Feature", "properties": { "id": "node/4519453389", "name:en": "CNG" }, "geometry": { "type": "Point", "coordinates": [ 96.2443182, 16.8377423 ] } },
    { "type": "Feature", "properties": { "id": "node/4521062598", "name:en": "PT Power Gas Station" }, "geometry": { "type": "Point", "coordinates": [ 96.238067, 16.8204297 ] } },
    { "type": "Feature", "properties": { "id": "node/4522398891", "name:en": "Chaut Gway" }, "geometry": { "type": "Point", "coordinates": [ 96.1631058, 16.9190621 ] } },
    { "type": "Feature", "properties": { "id": "node/4528819389", "name:en": null }, "geometry": { "type": "Point", "coordinates": [ 96.2020105, 16.804108 ] } },
    { "type": "Feature", "properties": { "id": "node/4537815990", "name:en": null }, "geometry": { "type": "Point", "coordinates": [ 96.1618701, 16.7826667 ] } },
    { "type": "Feature", "properties": { "id": "node/4542680489", "name:en": "Petro APM" }, "geometry": { "type": "Point", "coordinates": [ 96.2021141, 16.8040153 ] } },
    { "type": "Feature", "properties": { "id": "node/4549085196", "name:en": "2000" }, "geometry": { "type": "Point", "coordinates": [ 96.1712973, 16.8113197 ] } },
    { "type": "Feature", "properties": { "id": "node/4551691089", "name:en": "shwe Zin yaw" }, "geometry": { "type": "Point", "coordinates": [ 96.1278305, 16.8360122 ] } },
    { "type": "Feature", "properties": { "id": "node/4557982023", "name:en": "Petro K" }, "geometry": { "type": "Point", "coordinates": [ 96.1662389, 16.8237783 ] } },
    { "type": "Feature", "properties": { "id": "node/4566415282", "name:en": "Silver Wave" }, "geometry": { "type": "Point", "coordinates": [ 96.2059234, 16.8170411 ] } },
    { "type": "Feature", "properties": { "id": "node/4570424900", "name:en": "Nilar Yoma Staion" }, "geometry": { "type": "Point", "coordinates": [ 96.1474717, 16.9760262 ] } },
    { "type": "Feature", "properties": { "id": "node/4570480098", "name:en": "Terminal 202 Station" }, "geometry": { "type": "Point", "coordinates": [ 96.1500815, 16.9525604 ] } },
    { "type": "Feature", "properties": { "id": "node/4570480099", "name:en": "YADANA Station" }, "geometry": { "type": "Point", "coordinates": [ 96.1484742, 16.9579389 ] } },
    { "type": "Feature", "properties": { "id": "node/4570480100", "name:en": "S Station" }, "geometry": { "type": "Point", "coordinates": [ 96.1478074, 16.9791117 ] } },
    { "type": "Feature", "properties": { "id": "node/4570480297", "name:en": "Denko Hlegu Branch" }, "geometry": { "type": "Point", "coordinates": [ 96.1909814, 17.0808085 ] } },
    { "type": "Feature", "properties": { "id": "node/4570480394", "name:en": "MAX Station" }, "geometry": { "type": "Point", "coordinates": [ 96.2336502, 17.100961 ] } },
    { "type": "Feature", "properties": { "id": "node/4570480491", "name:en": "Petrol Star" }, "geometry": { "type": "Point", "coordinates": [ 96.1453635, 16.9874742 ] } },
    { "type": "Feature", "properties": { "id": "node/4570480492", "name:en": "Denko KoneTaLaPaung Branch" }, "geometry": { "type": "Point", "coordinates": [ 96.1466417, 17.016609 ] } },
    { "type": "Feature", "properties": { "id": "node/4570504190", "name:en": "PT Power" }, "geometry": { "type": "Point", "coordinates": [ 96.1478814, 16.9775157 ] } },
    { "type": "Feature", "properties": { "id": "node/4572643489", "name:en": "SBP ( Shwe Byain Phyu )" }, "geometry": { "type": "Point", "coordinates": [ 96.0435486, 16.8944634 ] } },
    { "type": "Feature", "properties": { "id": "node/4580489291", "name:en": "Nilar Yoma" }, "geometry": { "type": "Point", "coordinates": [ 96.222976, 16.8550408 ] } },
    { "type": "Feature", "properties": { "id": "node/4615504191", "name:en": null }, "geometry": { "type": "Point", "coordinates": [ 96.1996873, 16.7860862 ] } },
    { "type": "Feature", "properties": { "id": "node/4674439589", "name:en": "MAX Energy" }, "geometry": { "type": "Point", "coordinates": [ 96.1231548, 16.8253785 ] } },
    { "type": "Feature", "properties": { "id": "node/4740810923", "name:en": "Silver Wave" }, "geometry": { "type": "Point", "coordinates": [ 96.2055939, 16.816978 ] } },
    { "type": "Feature", "properties": { "id": "node/4796244826", "name:en": "Terminal" }, "geometry": { "type": "Point", "coordinates": [ 96.2489995, 16.7752917 ] } },
    { "type": "Feature", "properties": { "id": "node/4805054822", "name:en": "Thuriya Energy" }, "geometry": { "type": "Point", "coordinates": [ 96.1409187, 16.7774008 ] } },
    { "type": "Feature", "properties": { "id": "node/4814823522", "name:en": "Denko North Dagon Branch" }, "geometry": { "type": "Point", "coordinates": [ 96.1660864, 16.8855781 ] } },
    { "type": "Feature", "properties": { "id": "node/4871593324", "name:en": "SBP Oil" }, "geometry": { "type": "Point", "coordinates": [ 96.097485, 16.9106598 ] } },
    { "type": "Feature", "properties": { "id": "node/4879743221", "name:en": "Super Myanmar" }, "geometry": { "type": "Point", "coordinates": [ 96.0978426, 16.9003494 ] } },
    { "type": "Feature", "properties": { "id": "node/4920363221", "name:en": "PTT" }, "geometry": { "type": "Point", "coordinates": [ 96.1386682, 16.8715645 ] } },
    { "type": "Feature", "properties": { "id": "node/4929945222", "name:en": "Pyae Phyo Aung (Home use CNG)" }, "geometry": { "type": "Point", "coordinates": [ 96.1684206, 16.8152643 ] } },
    { "type": "Feature", "properties": { "id": "node/4956566832", "name:en": null }, "geometry": { "type": "Point", "coordinates": [ 96.0974542, 16.9124593 ] } },
    { "type": "Feature", "properties": { "id": "node/5183926921", "name:en": "360" }, "geometry": { "type": "Point", "coordinates": [ 96.1795931, 16.8921573 ] } },
    { "type": "Feature", "properties": { "id": "node/5205423821", "name:en": "Power-9" }, "geometry": { "type": "Point", "coordinates": [ 96.1305416, 16.9967971 ] } },
    { "type": "Feature", "properties": { "id": "node/5245297521", "name:en": "CNG (037) Station gas station" }, "geometry": { "type": "Point", "coordinates": [ 96.1787184, 16.8631008 ] } },
    { "type": "Feature", "properties": { "id": "node/5245297721", "name:en": "CNG(037) Gas Station" }, "geometry": { "type": "Point", "coordinates": [ 96.1764478, 16.8618674 ] } },
    { "type": "Feature", "properties": { "id": "node/5259114721", "name:en": "Power Nine" }, "geometry": { "type": "Point", "coordinates": [ 96.1306775, 16.9961446 ] } },
    { "type": "Feature", "properties": { "id": "node/5259114722", "name:en": "CNG" }, "geometry": { "type": "Point", "coordinates": [ 96.1332658, 17.028637 ] } },
    { "type": "Feature", "properties": { "id": "node/5330442224", "name:en": "CNG" }, "geometry": { "type": "Point", "coordinates": [ 96.1223991, 16.8603611 ] } },
    { "type": "Feature", "properties": { "id": "node/5398298125", "name:en": "DENKO- Hlegu" }, "geometry": { "type": "Point", "coordinates": [ 96.1903647, 17.0820907 ] } },
    { "type": "Feature", "properties": { "id": "node/5443237678", "name:en": "Star High" }, "geometry": { "type": "Point", "coordinates": [ 96.1223752, 16.897183 ] } },
    { "type": "Feature", "properties": { "id": "node/5445843486", "name:en": "Moonsun" }, "geometry": { "type": "Point", "coordinates": [ 96.1189665, 16.8925908 ] } },
    { "type": "Feature", "properties": { "id": "node/5447295377", "name:en": "Max Energy" }, "geometry": { "type": "Point", "coordinates": [ 96.1592493, 16.9327438 ] } },
    { "type": "Feature", "properties": { "id": "node/5447798900", "name:en": "360 petro" }, "geometry": { "type": "Point", "coordinates": [ 96.1951821, 16.8327133 ] } },
    { "type": "Feature", "properties": { "id": "node/5463735923", "name:en": "MMTM Petrol" }, "geometry": { "type": "Point", "coordinates": [ 96.1229595, 16.7951749 ] } },
    { "type": "Feature", "properties": { "id": "node/5463735926", "name:en": "Htoo" }, "geometry": { "type": "Point", "coordinates": [ 96.1309685, 16.7809152 ] } },
    { "type": "Feature", "properties": { "id": "node/5463735928", "name:en": "Alone Gas" }, "geometry": { "type": "Point", "coordinates": [ 96.1264828, 16.7839919 ] } },
    { "type": "Feature", "properties": { "id": "node/5463994422", "name:en": "CNG" }, "geometry": { "type": "Point", "coordinates": [ 96.126723, 16.9857342 ] } },
    { "type": "Feature", "properties": { "id": "node/5463994423", "name:en": "CNG" }, "geometry": { "type": "Point", "coordinates": [ 96.1511735, 16.9447958 ] } },
    { "type": "Feature", "properties": { "id": "node/5464011821", "name:en": "CNG" }, "geometry": { "type": "Point", "coordinates": [ 96.126771, 16.9508852 ] } },
    { "type": "Feature", "properties": { "id": "node/5530112122", "name:en": "Petrol 360" }, "geometry": { "type": "Point", "coordinates": [ 96.1089118, 16.8530396 ] } },
    { "type": "Feature", "properties": { "id": "node/5531892822", "name:en": "Government Petrol Station" }, "geometry": { "type": "Point", "coordinates": [ 96.1798681, 16.8464733 ] } },
    { "type": "Feature", "properties": { "id": "node/5542688972", "name:en": "Denko Hlaing Thar Yar Branch" }, "geometry": { "type": "Point", "coordinates": [ 96.050129, 16.8658553 ] } },
    { "type": "Feature", "properties": { "id": "node/5668290721", "name:en": "Star High" }, "geometry": { "type": "Point", "coordinates": [ 96.1223826, 16.8969923 ] } },
    { "type": "Feature", "properties": { "id": "node/5858631488", "name:en": "Htet Aung Kyaw" }, "geometry": { "type": "Point", "coordinates": [ 96.0336251, 16.7140927 ] } },
    { "type": "Feature", "properties": { "id": "node/5891407098", "name:en": null }, "geometry": { "type": "Point", "coordinates": [ 96.1781555, 16.834291 ] } },
    { "type": "Feature", "properties": { "id": "node/6118846939", "name:en": "Denko" }, "geometry": { "type": "Point", "coordinates": [ 96.2126675, 16.8617588 ] } },
    { "type": "Feature", "properties": { "id": "node/6121760886", "name:en": "Denko" }, "geometry": { "type": "Point", "coordinates": [ 96.0993992, 16.9526925 ] } },
    { "type": "Feature", "properties": { "id": "node/6134996189", "name:en": "CNG ( အလံု)" }, "geometry": { "type": "Point", "coordinates": [ 96.1323803, 16.7804189 ] } },
    { "type": "Feature", "properties": { "id": "node/6135666485", "name:en": "CNG ( TK)" }, "geometry": { "type": "Point", "coordinates": [ 96.2131011, 16.7910782 ] } },
    { "type": "Feature", "properties": { "id": "node/6172754887", "name:en": "360 Gas Station" }, "geometry": { "type": "Point", "coordinates": [ 96.204672, 16.8038589 ] } },
    { "type": "Feature", "properties": { "id": "node/6173403986", "name:en": "360 Gas Station" }, "geometry": { "type": "Point", "coordinates": [ 96.2047036, 16.8038938 ] } },
    { "type": "Feature", "properties": { "id": "node/6194319285", "name:en": "Yangon patrol" }, "geometry": { "type": "Point", "coordinates": [ 96.2212453, 16.7965486 ] } },
    { "type": "Feature", "properties": { "id": "node/6194319286", "name:en": "Yangon patrol" }, "geometry": { "type": "Point", "coordinates": [ 96.2684376, 16.8319522 ] } },
    { "type": "Feature", "properties": { "id": "node/6216113685", "name:en": "Yangon patrol" }, "geometry": { "type": "Point", "coordinates": [ 96.2226721, 16.7996779 ] } },
    { "type": "Feature", "properties": { "id": "node/6250802385", "name:en": "Yangon Patrol" }, "geometry": { "type": "Point", "coordinates": [ 96.2225688, 16.7997092 ] } },
    { "type": "Feature", "properties": { "id": "node/6250822686", "name:en": "Yangon Patrol" }, "geometry": { "type": "Point", "coordinates": [ 96.2225688, 16.7997222 ] } },
    { "type": "Feature", "properties": { "id": "node/6255401987", "name:en": "YP yangon petrol" }, "geometry": { "type": "Point", "coordinates": [ 96.2224042, 16.799855 ] } },
    { "type": "Feature", "properties": { "id": "node/6308041752", "name:en": "Denko Petrol" }, "geometry": { "type": "Point", "coordinates": [ 96.1560342, 16.8951358 ] } },
    { "type": "Feature", "properties": { "id": "node/6315335185", "name:en": "YP" }, "geometry": { "type": "Point", "coordinates": [ 96.2222976, 16.7989679 ] } },
    { "type": "Feature", "properties": { "id": "node/6325191825", "name:en": null }, "geometry": { "type": "Point", "coordinates": [ 96.1713917, 17.0695567 ] } },
    { "type": "Feature", "properties": { "id": "node/6337599085", "name:en": null }, "geometry": { "type": "Point", "coordinates": [ 96.2523531, 17.1117957 ] } },
    { "type": "Feature", "properties": { "id": "node/6598355385", "name:en": "htoo" }, "geometry": { "type": "Point", "coordinates": [ 96.1309896, 16.7809972 ] } },
    { "type": "Feature", "properties": { "id": "node/6857254842", "name:en": "Max" }, "geometry": { "type": "Point", "coordinates": [ 96.1892179, 16.8965949 ] } },
    { "type": "Feature", "properties": { "id": "node/7031978296", "name:en": "CITY ENERGY" }, "geometry": { "type": "Point", "coordinates": [ 96.1760053, 16.859253 ] } },
    { "type": "Feature", "properties": { "id": "node/7095820786", "name:en": "Denko petrol station" }, "geometry": { "type": "Point", "coordinates": [ 96.2350556, 16.8836275 ] } },
    { "type": "Feature", "properties": { "id": "node/7155859685", "name:en": "CNG" }, "geometry": { "type": "Point", "coordinates": [ 96.1270792, 17.0554921 ] } },
    { "type": "Feature", "properties": { "id": "node/7259949285", "name:en": "CNG" }, "geometry": { "type": "Point", "coordinates": [ 96.1779006, 16.7713392 ] } },
    { "type": "Feature", "properties": { "id": "node/8147906230", "name:en": "YP (Yangon Patrol)" }, "geometry": { "type": "Point", "coordinates": [ 96.2137215, 16.8597501 ] } },
    { "type": "Feature", "properties": { "id": "node/8488123017", "name:en": "CNG" }, "geometry": { "type": "Point", "coordinates": [ 96.0676107, 16.8760642 ] } },
    { "type": "Feature", "properties": { "id": "node/8763661017", "name:en": "Star High (Sat San)" }, "geometry": { "type": "Point", "coordinates": [ 96.1839336, 16.7905226 ] } },
    { "type": "Feature", "properties": { "id": "node/9040878451", "name:en": "Mica Power" }, "geometry": { "type": "Point", "coordinates": [ 96.1047331, 16.868847 ] } },
    { "type": "Feature", "properties": { "id": "node/9043442894", "name:en": "YP" }, "geometry": { "type": "Point", "coordinates": [ 96.2259939, 16.9085004 ] } },
    { "type": "Feature", "properties": { "id": "node/9931851664", "name:en": "SBP Oil" }, "geometry": { "type": "Point", "coordinates": [ 96.0531298, 17.0978594 ] } },
    { "type": "Feature", "properties": { "id": "node/9931851845", "name:en": null }, "geometry": { "type": "Point", "coordinates": [ 96.069158, 17.0450262 ] } },
    { "type": "Feature", "properties": { "id": "node/10281622131", "name:en": "Shwe Byine Phyu" }, "geometry": { "type": "Point", "coordinates": [ 96.1512965, 17.0251291 ] } },
    { "type": "Feature", "properties": { "id": "node/10777198505", "name:en": "Denko (ဒဂုံဆိပ်ကမ်း)" }, "geometry": { "type": "Point", "coordinates": [ 96.2523537, 16.8355129 ] } },
    { "type": "Feature", "properties": { "id": "node/11395464670", "name:en": "CNG Station" }, "geometry": { "type": "Point", "coordinates": [ 96.0981503, 16.9231173 ] } },
    { "type": "Feature", "properties": { "id": "node/11682842556", "name:en": "Denko Fuel Station Botahtaung" }, "geometry": { "type": "Point", "coordinates": [ 96.1783697, 16.7732858 ] } },
    { "type": "Feature", "properties": { "id": "node/11682908462", "name:en": "New Day Fuel Pump" }, "geometry": { "type": "Point", "coordinates": [ 96.1745895, 16.7738665 ] } },
    { "type": "Feature", "properties": { "id": "node/11876622873", "name:en": null }, "geometry": { "type": "Point", "coordinates": [ 96.0651418, 17.1074746 ] } },
    { "type": "Feature", "properties": { "id": "node/11876634602", "name:en": "Max" }, "geometry": { "type": "Point", "coordinates": [ 96.0212768, 17.1049409 ] } }
    ]
    }
    